KUIPER-00125            
1 65954U 25228H   26025.50002314 -.01244976  00000+0 -11227+0 0  9994
2 65954  51.8946 172.3912 0002665 157.9683 154.7518 14.98168002  5080
KUIPER-00126            
1 65955U 25228J   26025.17230977  .00005362  00000+0  73188-3 0  9995
2 65955  51.8974 193.0407 0000441 103.6021 256.4990 14.79925770 16780
KUIPER-00127            
1 65956U 25228K   26025.16064933  .00009135  00000+0  78089-3 0  9999
2 65956  51.8948 186.1676 0005177 207.1456 152.9244 14.98255049 16885
KUIPER-00128            
1 65957U 25228L   26025.14667958  .00009294  00000+0  12450-2 0  9999
2 65957  51.8974 185.6641 0001198  76.5733 283.5362 14.79984250 16880
KUIPER-00129            
1 65958U 25228M   26025.50002314 -.00024874  00000+0 -32421-2 0  9992
2 65958  51.8990 179.0872 0002101 109.2491 125.4085 14.79980360  5840
KUIPER-00130            
1 65959U 25228N   26025.14928792  .00001786  00000+0  26305-3 0  9990
2 65959  51.8974 183.1331 0001046  77.5326 282.5753 14.79957433  7215
KUIPER-00134            
1 65960U 25228P   26025.11025602  .00058711  00000+0  15920-2 0  9997
2 65960  51.8733 171.2319 0006893 157.9464 202.1821 15.37046385 17085
KUIPER-00135            
1 65961U 25228Q   26025.00004630 -.00002399  00000+0 -28546-3 0  9996
2 65961  51.9005 183.8602 0000701 102.6827   1.3465 14.79979885  5169
